NORAD_CAT_ID,OBJECT_NAME,OBJECT_TYPE,EPOCH,MEAN_MOTION,ECCENTRICITY,INCLINATION,RA_OF_ASC_NODE,ARG_OF_PERICENTER,MEAN_ANOMALY,BSTAR,MEAN_MOTION_DOT,MEAN_MOTION_DDOT,TLE_LINE0,TLE_LINE1,TLE_LINE2,SEMIMAJOR_AXIS,PERIOD,APOGEE,PERIGEE,DECAYED
50191.0,STARLINK-3273,PAYLOAD,2024-02-03 13:46:14,15.08842488,0.0001148,53.2173,93.8583,89.1881,270.9243,4.606e-05,4.45e-06,0.0,0 STARLINK-3273,1 50191U 21125AM  24034.57377784  .00000445  00000-0  46060-4 0  9991,2 50191  53.2173  93.8583 0001148  89.1881 270.9243 15.08842488120945,6917.873,95.437,540.532,538.944,0.0
50191.0,STARLINK-3273,PAYLOAD,2024-02-04 04:04:43,15.08826014,0.0001405,53.2171,91.1816,99.4464,260.6687,0.00014077,1.952e-05,0.0,0 STARLINK-3273,1 50191U 21125AM  24035.16994306  .00001952  00000-0  14077-3 0  9998,2 50191  53.2171  91.1816 0001405  99.4464 260.6687 15.08826014117952,6917.923,95.438,540.76,538.816,0.0
50191.0,STARLINK-3273,PAYLOAD,2024-02-04 10:26:15,15.08848106,0.0001387,53.2171,89.9924,95.4915,264.6235,-8.6721e-06,-4.26e-06,0.0,0 STARLINK-3273,1 50191U 21125AM  24035.43489611 -.00000426  00000-0 -86721-5 0  9990,2 50191  53.2171  89.9924 0001387  95.4915 264.6235 15.08848106117996,6917.856,95.437,540.68,538.761,0.0
50191.0,STARLINK-3273,PAYLOAD,2024-02-04 18:23:11,15.08828891,0.0001416,53.2179,88.5057,90.9907,269.1247,-0.00010458,-1.951e-05,0.0,0 STARLINK-3273,1 50191U 21125AM  24035.76610888 -.00001951  00000-0 -10458-3 0  9994,2 50191  53.2179  88.5057 0001416  90.9907 269.1247 15.08828891118049,6917.914,95.438,540.759,538.8,0.0
50191.0,STARLINK-3273,PAYLOAD,2024-02-05 03:55:30,15.08832564,0.000138,53.2159,86.7222,89.502,270.613,3.0949e-05,2.05e-06,0.0,0 STARLINK-3273,1 50191U 21125AM  24036.16354500  .00000205  00000-0  30949-4 0  9992,2 50191  53.2159  86.7222 0001380  89.5020 270.6130 15.08832564118108,6917.903,95.438,540.723,538.813,0.0
50191.0,STARLINK-3273,PAYLOAD,2024-02-05 10:17:02,15.08841286,0.0001366,53.2163,85.5343,82.2484,277.8664,0.00013654,1.886e-05,0.0,0 STARLINK-3273,1 50191U 21125AM  24036.42850062  .00001886  00000-0  13654-3 0  9994,2 50191  53.2163  85.5343 0001366  82.2484 277.8664 15.08841286118148,6917.876,95.437,540.686,538.796,0.0
50191.0,STARLINK-3273,PAYLOAD,2024-02-06 08:32:26,15.08844091,0.0001435,53.2157,81.3717,87.8858,272.2299,0.00015423,2.168e-05,0.0,0 STARLINK-3273,1 50191U 21125AM  24037.35586117  .00002168  00000-0  15423-3 0  9994,2 50191  53.2157  81.3717 0001435  87.8858 272.2299 15.08844091121361,6917.868,95.437,540.726,538.74,0.0
50191.0,STARLINK-3273,PAYLOAD,2024-02-07 11:33:59,15.08842138,0.0001447,53.2156,76.317,87.4052,272.7106,0.00013856,1.918e-05,0.0,0 STARLINK-3273,1 50191U 21125AM  24038.48194360  .00001918  00000-0  13856-3 0  9994,2 50191  53.2156  76.3170 0001447  87.4052 272.7106 15.08842138118450,6917.874,95.437,540.74,538.738,0.0
50191.0,STARLINK-3273,PAYLOAD,2024-02-07 19:30:55,15.08837357,0.0001503,53.2164,74.8304,89.7643,270.3521,6.2736e-05,7.11e-06,0.0,0 STARLINK-3273,1 50191U 21125AM  24038.81314682  .00000711  00000-0  62736-4 0  9994,2 50191  53.2164  74.8304 0001503  89.7643 270.3521 15.08837357121585,6917.888,95.438,540.793,538.714,0.0
50191.0,STARLINK-3273,PAYLOAD,2024-02-08 11:24:46,15.08848802,0.0001481,53.2152,71.8541,95.462,264.6541,0.00018243,2.617e-05,0.0,0 STARLINK-3273,1 50191U 21125AM  24039.47554066  .00002617  00000-0  18243-3 0  9999,2 50191  53.2152  71.8541 0001481  95.4620 264.6541 15.08848802118600,6917.853,95.437,540.743,538.694,0.0
50191.0,STARLINK-3273,PAYLOAD,2024-02-09 11:15:34,15.08843331,0.0001753,53.2174,67.3882,77.3895,282.7293,0.00012788,1.748e-05,0.0,0 STARLINK-3273,1 50191U 21125AM  24040.46914554  .00001748  00000-0  12788-3 0  9994,2 50191  53.2174  67.3882 0001753  77.3895 282.7293 15.08843331118750,6917.87,95.437,540.948,538.523,0.0
50191.0,STARLINK-3273,PAYLOAD,2024-02-10 07:55:34,15.08845194,0.00019,53.2174,63.5265,117.4583,242.6603,7.8618e-05,9.63e-06,0.0,0 STARLINK-3273,1 50191U 21125AM  24041.33026514  .00000963  00000-0  78618-4 0  9994,2 50191  53.2174  63.5265 0001900 117.4583 242.6603 15.08845194121963,6917.865,95.437,541.044,538.415,0.0
50191.0,STARLINK-3273,PAYLOAD,2024-02-11 04:35:36,15.08828428,0.0002263,53.2171,59.6623,126.8951,233.2249,0.00038184,5.792e-05,0.0,0 STARLINK-3273,1 50191U 21125AM  24042.19139336  .00005792  00000-0  38184-3 0  9994,2 50191  53.2171  59.6623 0002263 126.8951 233.2249 15.08828428119016,6917.916,95.438,541.346,538.215,0.0
50191.0,STARLINK-3273,PAYLOAD,2024-02-11 07:46:22,15.08845918,0.0001658,53.2182,59.0684,102.4243,257.6935,1.6267e-05,-2.9e-07,0.0,0 STARLINK-3273,1 50191U 21125AM  24042.32386737 -.00000029  00000-0  16267-4 0  9996,2 50191  53.2182  59.0684 0001658 102.4243 257.6935 15.08845918119037,6917.862,95.437,540.874,538.58,0.0
50191.0,STARLINK-3273,PAYLOAD,2024-02-12 10:47:54,15.08855481,0.0001647,53.2172,54.0094,102.659,257.4586,0.00023155,3.401e-05,0.0,0 STARLINK-3273,1 50191U 21125AM  24043.44994006  .00003401  00000-0  23155-3 0  9993,2 50191  53.2172  54.0094 0001647 102.6590 257.4586 15.08855481119206,6917.833,95.437,540.837,538.559,0.0
50191.0,STARLINK-3273,PAYLOAD,2024-02-13 01:06:24,15.08829143,0.0001527,53.2175,51.3376,79.412,280.7045,-8.3793e-05,-1.621e-05,0.0,0 STARLINK-3273,1 50191U 21125AM  24044.04611496 -.00001621  00000-0 -83793-4 0  9998,2 50191  53.2175  51.3376 0001527  79.4120 280.7045 15.08829143119293,6917.914,95.438,540.835,538.722,0.0
50191.0,STARLINK-3273,PAYLOAD,2024-02-13 07:27:56,15.08835079,0.0001402,53.2175,50.1487,96.452,263.6632,2.1956e-05,6.1e-07,0.0,0 STARLINK-3273,1 50191U 21125AM  24044.31107367  .00000061  00000-0  21956-4 0  9993,2 50191  53.2175  50.1487 0001402  96.4520 263.6632 15.08835079122413,6917.895,95.438,540.73,538.791,0.0
50191.0,STARLINK-3273,PAYLOAD,2024-02-13 17:00:15,15.08839294,0.0001439,53.2176,48.3639,98.8609,261.2546,9.9596e-05,1.297e-05,0.0,0 STARLINK-3273,1 50191U 21125AM  24044.70851210  .00001297  00000-0  99596-4 0  9996,2 50191  53.2176  48.3639 0001439  98.8609 261.2546 15.08839294119390,6917.883,95.438,540.743,538.752,0.0
50191.0,STARLINK-3273,PAYLOAD,2024-02-14 10:29:29,15.08855589,0.0001359,53.2169,45.0921,96.938,263.1766,0.00081513,0.00012714,0.0,0 STARLINK-3273,1 50191U 21125AM  24045.43715076  .00012714  00000-0  81513-3 0  9991,2 50191  53.2169  45.0921 0001359  96.9380 263.1766 15.08855589122581,6917.833,95.437,540.638,538.758,0.0
50191.0,STARLINK-3273,PAYLOAD,2024-02-14 16:51:02,15.08837571,0.0001448,53.2181,43.8976,94.1701,265.9457,0.00034385,5.188e-05,0.0,0 STARLINK-3273,1 50191U 21125AM  24045.70211421  .00005188  00000-0  34385-3 0  9998,2 50191  53.2181  43.8976 0001448  94.1701 265.9457 15.08837571122620,6917.888,95.438,540.755,538.751,0.0
50191.0,STARLINK-3273,PAYLOAD,2024-02-15 03:58:44,15.08840039,0.0001542,53.2173,41.8164,96.6144,263.5024,0.00028091,4.186e-05,0.0,0 STARLINK-3273,1 50191U 21125AM  24046.16579523  .00004186  00000-0  28091-3 0  9993,2 50191  53.2173  41.8164 0001542  96.6144 263.5024 15.08840039119613,6917.88,95.438,540.812,538.679,0.0
50191.0,STARLINK-3273,PAYLOAD,2024-02-15 08:44:54,15.08841911,0.0001568,53.2179,40.9243,91.4695,268.6477,0.0002111,3.073e-05,0.0,0 STARLINK-3273,1 50191U 21125AM  24046.36451467  .00003073  00000-0  21110-3 0  9990,2 50191  53.2179  40.9243 0001568  91.4695 268.6477 15.08841911122723,6917.875,95.437,540.824,538.655,0.0
50191.0,STARLINK-3273,PAYLOAD,2024-02-15 23:03:22,15.08837562,0.0001645,53.2173,38.2511,89.7806,270.3374,6.9711e-05,8.22e-06,0.0,0 STARLINK-3273,1 50191U 21125AM  24046.96067842  .00000822  00000-0  69711-4 0  9995,2 50191  53.2173  38.2511 0001645  89.7806 270.3374 15.08837562122818,6917.888,95.438,540.891,538.615,0.0
50191.0,STARLINK-3273,PAYLOAD,2024-02-16 08:35:40,15.08851579,0.0001533,53.2171,36.4664,94.4582,265.6586,0.00030726,4.607e-05,0.0,0 STARLINK-3273,1 50191U 21125AM  24047.35811338  .00004607  00000-0  30726-3 0  9994,2 50191  53.2171  36.4664 0001533  94.4582 265.6586 15.08851579119794,6917.845,95.437,540.771,538.649,0.0
50191.0,STARLINK-3273,PAYLOAD,2024-02-16 22:54:09,15.08835215,0.0001534,53.2178,33.7885,102.8293,257.2871,6.638e-05,7.68e-06,0.0,0 STARLINK-3273,1 50191U 21125AM  24047.95428070  .00000768  00000-0  66380-4 0  9997,2 50191  53.2178  33.7885 0001534 102.8293 257.2871 15.08835215122966,6917.895,95.438,540.821,538.699,0.0
50191.0,STARLINK-3273,PAYLOAD,2024-02-17 03:40:19,15.08841853,0.0002248,53.2182,32.8973,110.5256,249.5977,0.00018692,2.688e-05,0.0,0 STARLINK-3273,1 50191U 21125AM  24048.15299893  .00002688  00000-0  18692-3 0  9994,2 50191  53.2182  32.8973 0002248 110.5256 249.5977 15.08841853119914,6917.875,95.437,541.295,538.185,0.0
50191.0,STARLINK-3273,PAYLOAD,2024-02-17 05:15:42,15.08841536,0.0001626,53.2172,32.6007,107.1531,252.9639,0.00021027,3.06e-05,0.0,0 STARLINK-3273,1 50191U 21125AM  24048.21923896  .00003060  00000-0  21027-3 0  9999,2 50191  53.2172  32.6007 0001626 107.1531 252.9639 15.08841536123002,6917.876,95.437,540.866,538.616,0.0
50191.0,STARLINK-3273,PAYLOAD,2024-02-17 22:44:56,15.08846352,0.0001733,53.217,29.3311,94.631,265.488,0.00030945,4.641e-05,0.0,0 STARLINK-3273,1 50191U 21125AM  24048.94787975  .00004641  00000-0  30945-3 0  9990,2 50191  53.2170  29.3311 0001733  94.6310 265.4880 15.08846352123115,6917.861,95.437,540.925,538.527,0.0
50191.0,STARLINK-3273,PAYLOAD,2024-02-18 08:17:15,15.08857712,0.0001819,53.2179,27.5452,102.6437,257.4759,0.000519,7.985e-05,0.0,0 STARLINK-3273,1 50191U 21125AM  24049.34531482  .00007985  00000-0  51900-3 0  9993,2 50191  53.2179  27.5452 0001819 102.6437 257.4759 15.08857712120097,6917.826,95.436,540.95,538.433,0.0
50191.0,STARLINK-3273,PAYLOAD,2024-02-19 03:21:53,15.08843681,0.0001587,53.218,23.9775,101.1853,258.9318,0.00015712,2.214e-05,0.0,0 STARLINK-3273,1 50191U 21125AM  24050.14019801  .00002214  00000-0  15712-3 0  9990,2 50191  53.2180  23.9775 0001587 101.1853 258.9318 15.08843681120216,6917.869,95.437,540.832,538.636,0.0
